NORAD_CAT_ID,OBJECT_NAME,OBJECT_TYPE,EPOCH,MEAN_MOTION,ECCENTRICITY,INCLINATION,RA_OF_ASC_NODE,ARG_OF_PERICENTER,MEAN_ANOMALY,BSTAR,MEAN_MOTION_DOT,MEAN_MOTION_DDOT,TLE_LINE0,TLE_LINE1,TLE_LINE2,SEMIMAJOR_AXIS,PERIOD,APOGEE,PERIGEE,DECAYED
53986.0,STARLINK-5119,PAYLOAD,2022-10-19 22:00:00,15.76380647,0.0003182,53.2173,22.2758,263.5946,161.25799999999995,-0.0036601,-0.00553995,0.0,0 STARLINK-5119,1 53986U 22125Y   22292.91667824 -.00553995  00000-0 -36601-2 0  9999,2 53986  53.2173  22.2758 0003182 263.5946 161.2580 15.76380647  1303,6718.842,91.348,342.845,338.569,0.0
53986.0,STARLINK-5119,PAYLOAD,2022-10-20 12:00:00,15.75715615,0.0001255,53.2172,19.3777,351.8255,144.6245,-0.0037683,-0.00553496,0.0,0 STARLINK-5119,1 53986U 22125Y   22293.50001157 -.00553496  00000-0 -37683-2 0  9993,2 53986  53.2172  19.3777 0001255 351.8255 144.6245 15.75715615  2684,6720.733,91.387,343.441,341.754,0.0
53986.0,STARLINK-5119,PAYLOAD,2022-10-20 14:00:01,15.75612196,0.0007627999999999,53.2173,18.9642,269.5208,339.9032,-0.0036658999999999,-0.00538621,0.0,0 STARLINK-5119,1 53986U 22125Y   22293.58334491 -.00538621  00000-0 -36659-2 0  9996,2 53986  53.2173  18.9642 0007628 269.5208 339.9032 15.75612196  1305,6721.026999999999,91.393,348.01800000000014,337.765,0.0
53986.0,STARLINK-5119,PAYLOAD,2022-10-20 20:00:01,15.75329462,0.0006659,53.2171,17.7223,269.5019,318.6647,-0.0037459,-0.0054294,0.0,0 STARLINK-5119,1 53986U 22125Y   22293.83334491 -.00542940  00000-0 -37459-2 0  9992,2 53986  53.2171  17.7223 0006659 269.5019 318.6647 15.75329462  2733,6721.831,91.409,348.172,339.22,0.0
53986.0,STARLINK-5119,PAYLOAD,2022-10-20 22:00:00,15.75231748,0.0006345,53.2174,17.308,268.9269,72.0979,-0.0037153,-0.00536497,0.0,0 STARLINK-5119,1 53986U 22125Y   22293.91667824 -.00536497  00000-0 -37153-2 0  9991,2 53986  53.2174  17.3080 0006345 268.9269  72.0979 15.75231748  1305,6722.109,91.415,348.23900000000015,339.709,0.0
53986.0,STARLINK-5119,PAYLOAD,2022-10-21 04:00:00,15.74943263,0.0001467,53.2174,16.0661,279.0262,40.4012,-0.0037241,-0.00530246,0.0,0 STARLINK-5119,1 53986U 22125Y   22294.16667824 -.00530246  00000-0 -37241-2 0  9993,2 53986  53.2174  16.0661 0001467 279.0262  40.4012 15.74943263  2783,6722.93,91.432,345.781,343.80800000000005,0.0
53986.0,STARLINK-5119,PAYLOAD,2022-10-21 14:00:01,15.74477964,0.0001426999999999,53.2177,14.002,32.2809,130.5721,-0.0039232,-0.00546304,0.0,0 STARLINK-5119,1 53986U 22125Y   22294.58334491 -.00546304  00000-0 -39232-2 0  9994,2 53986  53.2177  14.0020 0001427  32.2809 130.5721 15.74477964  1300,6724.254,91.459,347.079,345.16,0.0
53986.0,STARLINK-5119,PAYLOAD,2022-10-21 20:00:01,15.74187589,0.0001384,53.2183,12.7631,42.3781,98.1939,-0.0039176,-0.00539126,0.0,0 STARLINK-5119,1 53986U 22125Y   22294.83334491 -.00539126  00000-0 -39176-2 0  9993,2 53986  53.2183  12.7631 0001384  42.3781  98.1939 15.74187589  2899,6725.081,91.476,347.87699999999984,346.015,0.0
53986.0,STARLINK-5119,PAYLOAD,2022-10-21 22:00:00,15.74097161,0.0001329,53.2181,12.3492,47.4574,205.6277,-0.0039829,-0.00545538,0.0,0 STARLINK-5119,1 53986U 22125Y   22294.91667824 -.00545538  00000-0 -39829-2 0  9990,2 53986  53.2181  12.3492 0001329  47.4574 205.6277 15.74097161  1304,6725.339,91.481,348.097,346.31,0.0
53986.0,STARLINK-5119,PAYLOAD,2022-10-22 12:00:00,15.73392744,0.0001445,53.2186,9.4619,44.3649,275.5457,-0.0016202,-0.00223905,0.0,0 STARLINK-5119,1 53986U 22125Y   22295.50001157 -.00223905  00000-0 -16202-2 0  9998,2 53986  53.2186   9.4619 0001445  44.3649 275.5457 15.73392744  2991,6727.346,91.522,350.18300000000005,348.23900000000015,0.0
53986.0,STARLINK-5119,PAYLOAD,2022-10-22 14:00:01,15.73370629,0.0001426999999999,53.2186,9.0496,45.8572,26.3279,-0.0017148,-0.00236371,0.0,0 STARLINK-5119,1 53986U 22125Y   22295.58334491 -.00236371  00000-0 -17148-2 0  9997,2 53986  53.2186   9.0496 0001427  45.8572  26.3279 15.73370629  1307,6727.409000000002,91.523,350.2340000000001,348.314,0.0
53986.0,STARLINK-5119,PAYLOAD,2022-10-22 20:00:01,15.73330934,0.0001398,53.2229,7.8195,30.0625,18.8658,-0.00069711,-0.00097871,0.0,0 STARLINK-5119,1 53986U 22125Y   22295.83334491 -.00097871  00000-0 -69711-3 0  9999,2 53986  53.2229   7.8195 0001398  30.0625  18.8658 15.73330934  3044,6727.522,91.526,350.327,348.446,0.0
53986.0,STARLINK-5119,PAYLOAD,2022-10-22 22:00:00,15.73330791,0.0001365999999999,53.223,7.4066,34.3379,126.853,-0.00089528,-0.00125113,0.0,0 STARLINK-5119,1 53986U 22125Y   22295.91667824 -.00125113  00000-0 -89528-3 0  9996,2 53986  53.2230   7.4066 0001366  34.3379 126.8530 15.73330791  1304,6727.522,91.526,350.306,348.468,0.0
53986.0,STARLINK-5119,PAYLOAD,2022-10-23 04:00:01,15.73231081,0.0001426999999999,53.2225,6.1685,45.5994,92.4485,0.00035686,0.00049827,0.0,0 STARLINK-5119,1 53986U 22125Y   22296.16668981  .00049827  00000-0  35686-3 0  9990,2 53986  53.2225   6.1685 0001427  45.5994  92.4485 15.73231081  3105,6727.807,91.531,350.63199999999995,348.712,0.0
53986.0,STARLINK-5119,PAYLOAD,2022-10-23 12:00:00,15.72999824,0.0001585,53.219,4.5131,53.4024,173.5574,0.0022049,0.003181,0.0,0 STARLINK-5119,1 53986U 22125Y   22296.50001157  .00318100  00000-0  22049-2 0  9995,2 53986  53.2190   4.5131 0001585  53.4024 173.5574 15.72999824  3151,6728.465999999999,91.545,351.397,349.264,0.0
53986.0,STARLINK-5119,PAYLOAD,2022-10-23 14:00:01,15.73148099,0.0001594,53.2184,4.1005,51.8972,287.212,0.00065453,0.00092046,0.0,0 STARLINK-5119,1 53986U 22125Y   22296.58334491  .00092046  00000-0  65453-3 0  9998,2 53986  53.2184   4.1005 0001594  51.8972 287.2120 15.73148099  1300,6728.043000000002,91.536,350.981,348.836,0.0
53986.0,STARLINK-5119,PAYLOAD,2022-10-23 20:00:01,15.73267339,0.0001956999999999,53.2202,2.8714,47.2924,268.5747,-0.00067188,-0.00094145,0.0,0 STARLINK-5119,1 53986U 22125Y   22296.83334491 -.00094145  00000-0 -67188-3 0  9997,2 53986  53.2202   2.8714 0001957  47.2924 268.5747 15.73267339  3209,6727.703,91.529,350.885,348.25199999999984,0.0
53986.0,STARLINK-5119,PAYLOAD,2022-10-23 22:00:00,15.73232928,0.000185,53.2202,2.4586,48.2157,19.9045,-0.00026616,-0.00037862,0.0,0 STARLINK-5119,1 53986U 22125Y   22296.91667824 -.00037862  00000-0 -26616-3 0  9999,2 53986  53.2202   2.4586 0001850  48.2157  19.9045 15.73232928  1307,6727.801,91.531,350.911,348.422,0.0
53986.0,STARLINK-5119,PAYLOAD,2022-10-24 04:00:01,15.73211115,0.0001758,53.22,1.221,48.7612,356.1287,0.00011006,0.0001486,0.0,0 STARLINK-5119,1 53986U 22125Y   22297.16668981  .00014860  00000-0  11006-3 0  9990,2 53986  53.2200   1.2210 0001758  48.7612 356.1287 15.73211115  3259,6727.863,91.533,350.911,348.546,0.0
53986.0,STARLINK-5119,PAYLOAD,2022-10-24 14:00:01,15.73176364,0.0001844999999999,53.2196,359.1618,36.5121,209.5018,0.0005242999999999,0.00073535,0.0,0 STARLINK-5119,1 53986U 22125Y   22297.58334491  .00073535  00000-0  52430-3 0  9992,2 53986  53.2196 359.1618 0001845  36.5121 209.5018 15.73176364  1300,6727.9630000000025,91.535,351.069,348.586,0.0
53986.0,STARLINK-5119,PAYLOAD,2022-10-24 20:00:01,15.73252479,0.000172,53.2194,357.9235,35.7249,186.9763,-0.00064461,-0.00090328,0.0,0 STARLINK-5119,1 53986U 22125Y   22297.83334491 -.00090328  00000-0 -64461-3 0  9998,2 53986  53.2194 357.9235 0001720  35.7249 186.9763 15.73252479  3368,6727.746,91.53,350.76800000000014,348.45300000000015,0.0
53986.0,STARLINK-5119,PAYLOAD,2022-10-24 22:00:00,15.73200706,0.0001636999999999,53.2196,357.5106,37.916,297.0323,-0.0001125,-0.00016379,0.0,0 STARLINK-5119,1 53986U 22125Y   22297.91667824 -.00016379  00000-0 -11250-3 0  9998,2 53986  53.2196 357.5106 0001637  37.9160 297.0323 15.73200706  1300,6727.893,91.533,350.86,348.657,0.0
53986.0,STARLINK-5119,PAYLOAD,2022-10-25 04:00:00,15.73220712,0.0001683,53.2197,356.2729,40.6754,270.9548,-0.00027916,-0.00039651,0.0,0 STARLINK-5119,1 53986U 22125Y   22298.16667824 -.00039651  00000-0 -27916-3 0  9990,2 53986  53.2197 356.2729 0001683  40.6754 270.9548 15.73220712  3411,6727.8359999999975,91.532,350.833,348.569,0.0
53986.0,STARLINK-5119,PAYLOAD,2022-10-25 12:00:00,15.73166029,0.0002029,53.2197,354.6257,38.8971,1.6571,-0.00011643,-0.00016906,0.0,0 STARLINK-5119,1 53986U 22125Y   22298.50001157 -.00016906  00000-0 -11643-3 0  9997,2 53986  53.2197 354.6257 0002029  38.8971   1.6571 15.73166029  3464,6727.9919999999975,91.535,351.222,348.492,0.0
53986.0,STARLINK-5119,PAYLOAD,2022-10-25 14:00:01,15.73156395,0.0002020999999999,53.2196,354.2135,36.6891,116.0889,-1.1902e-05,-2.288e-05,0.0,0 STARLINK-5119,1 53986U 22125Y   22298.58334491 -.00002288  00000-0 -11902-4 0  9992,2 53986  53.2196 354.2135 0002021  36.6891 116.0889 15.73156395  1302,6728.019,91.536,351.244,348.525,0.0
53986.0,STARLINK-5119,PAYLOAD,2022-10-25 22:00:01,15.73131944,0.0001802,53.2194,352.5624,36.5354,205.1943,0.00038247,0.00053242,0.0,0 STARLINK-5119,1 53986U 22125Y   22298.91668981  .00053242  00000-0  38247-3 0  9997,2 53986  53.2194 352.5624 0001802  36.5354 205.1943 15.73131944  1307,6728.089,91.537,351.167,348.742,0.0
53986.0,STARLINK-5119,PAYLOAD,2022-10-26 04:00:00,15.73175944,0.0001713,53.2193,351.3253,39.8547,178.4497,0.00025784,0.00035683,0.0,0 STARLINK-5119,1 53986U 22125Y   22299.16667824  .00035683  00000-0  25784-3 0  9991,2 53986  53.2193 351.3253 0001713  39.8547 178.4497 15.73175944  3577,6727.964,91.535,350.981,348.676,0.0
53986.0,STARLINK-5119,PAYLOAD,2022-10-26 14:00:01,15.73097303,0.0001963,53.2189,349.2658,32.3818,27.0788,0.0013407,0.00191039,0.0,0 STARLINK-5119,1 53986U 22125Y   22299.58334491  .00191039  00000-0  13407-2 0  9994,2 53986  53.2189 349.2658 0001963  32.3818  27.0788 15.73097303  3645,6728.188,91.539,351.374,348.732,0.0
53986.0,STARLINK-5119,PAYLOAD,2022-10-26 20:00:01,15.73231964,0.0001874,53.219,348.0273,33.3379,2.7641,0.00010442,0.00014079,0.0,0 STARLINK-5119,1 53986U 22125Y   22299.83334491  .00014079  00000-0  10442-3 0  9997,2 53986  53.2190 348.0273 0001874  33.3379   2.7641 15.73231964  3675,6727.804,91.531,350.93,348.408,0.0
